STARLINK-33533          
1 63387U 25063AA  26068.35564524  .00034370  00000+0  11671-2 0  9993
2 63387  53.1604  51.5014 0001298  89.4968 270.6182 15.30202346 54694
SCS-01 D                
1 63985U 25100D   26068.75607686  .00032471  00000+0  10528-2 0  9990
2 63985  97.3730 145.4097 0006346 266.2302  93.8214 15.31902149 45621
